OBJECT_NAME,OBJECT_ID,EPOCH,MEAN_MOTION,ECCENTRICITY,INCLINATION,RA_OF_ASC_NODE,ARG_OF_PERICENTER,MEAN_ANOMALY,EPHEMERIS_TYPE,CLASSIFICATION_TYPE,NORAD_CAT_ID,ELEMENT_SET_NO,REV_AT_EPOCH,BSTAR,MEAN_MOTION_DOT,MEAN_MOTION_DDOT
STARLINK-38047,2026-150G,2026-07-13T00:00:02.000160,15.80813522,.00014083,97.2839,32.2486,89.2048,328.0747,0,U,69745,999,294,-.2100564E-4,-.4163E-4,0
STARLINK-38046,2026-150H,2026-07-13T00:00:02.000160,15.80801512,.00013109,97.2844,32.2534,94.9142,333.2902,0,U,69746,999,294,.99715893E-4,.18987E-3,0
STARLINK-38067,2026-150J,2026-07-13T06:00:02.999808,15.75187793,.00012745,97.2836,32.5003,82.7251,283.8675,0,U,69747,999,298,-.56967952E-3,-.8426E-3,0
STARLINK-37988,2026-150K,2026-07-13T06:00:02.999808,15.75188612,.00012621,97.2835,32.5045,86.1181,290.4764,0,U,69748,999,298,-.60659565E-3,-.89658E-3,0
STARLINK-37987,2026-150L,2026-07-13T06:00:02.999808,15.75238686,.00014657,97.2842,32.5160,92.0759,308.4860,0,U,69749,999,298,-.10472233E-2,-.153879E-2,0
STARLINK-38037,2026-150M,2026-07-13T00:00:02.000160,15.80825556,.00012771,97.2844,32.2652,96.8309,357.3718,0,U,69750,999,294,-.11660733E-3,-.2243E-3,0
STARLINK-38049,2026-150N,2026-07-13T00:00:02.000160,15.80809197,.00014978,97.2844,32.2676,100.8768,359.1154,0,U,69751,999,294,.59874753E-4,.11338E-3,0
STARLINK-38029,2026-150P,2026-07-13T00:00:02.000160,15.80790718,.00012539,97.2841,32.2808,95.2386,37.4594,0,U,69752,999,294,.18450835E-3,.35302E-3,0
STARLINK-37965,2026-150Q,2026-07-13T06:00:02.999808,15.75203048,.00012057,97.2845,32.5387,95.4924,1.0775,0,U,69753,999,298,-.63068459E-3,-.93233E-3,0
STARLINK-38048,2026-150R,2026-07-13T00:00:02.000160,15.80828554,.00011506,97.2841,32.2820,99.0180,35.7834,0,U,69754,999,294,-.20086401E-3,-.38469E-3,0
STARLINK-38006,2026-150S,2026-07-13T00:00:02.000160,15.80882837,.00011379,97.2839,32.2885,85.0625,65.3368,0,U,69755,999,294,-.10189869E-2,-.191686E-2,0
STARLINK-38036,2026-150T,2026-07-13T00:51:11.444832,15.80812767,.00013225,97.2845,32.3305,67.0527,293.0880,0,U,69756,999,298,.98198248E-3,.192126E-2,0
STARLINK-38058,2026-150U,2026-07-13T00:00:02.000160,15.80829920,.00011628,97.2844,32.2941,93.5513,65.9787,0,U,69757,999,294,-.15929099E-3,-.30566E-3,0
STARLINK-38066,2026-150V,2026-07-13T00:50:36.612672,15.80818751,.00015108,97.2844,32.3308,68.8606,291.2823,0,U,69758,999,298,.1069691E-2,.209784E-2,0
STARLINK-38035,2026-150W,2026-07-13T00:50:25.900800,15.80809042,.00012643,97.2839,32.3311,61.9085,298.2311,0,U,69759,999,298,.93688369E-3,.183073E-2,0
STARLINK-38056,2026-150X,2026-07-13T00:45:26.866080,15.80868163,.00013408,97.2831,32.3357,136.1540,223.9835,0,U,69760,999,298,.58702695E-3,.114054E-2,0
STARLINK-38069,2026-150Y,2026-07-13T06:00:02.999808,15.80860478,.00017216,97.2843,32.5768,82.5022,99.7418,0,U,69761,999,298,-.69965033E-3,-.132425E-2,0
STARLINK-38019,2026-150Z,2026-07-13T06:00:02.999808,15.75319114,.00006824,97.2848,32.5644,72.4518,80.0526,0,U,69762,999,298,-.18386844E-2,-.267448E-2,0
KUIPER-00258,2026-151A,2026-07-13T00:00:02.000160,15.35398399,.00118232,51.8674,191.1397,161.5150,259.9943,0,U,69763,999,204,.70929306E-3,.2451E-3,0
KUIPER-00526,2026-151B,2026-07-13T07:14:38.762592,15.37296467,.00057376,51.8757,189.5453,134.2692,225.8767,0,U,69764,999,172,.33247856E-3,.11972E-3,0
KUIPER-00558,2026-151C,2026-07-13T07:19:33.626784,15.36788802,.00084515,51.8732,189.5670,144.3637,215.7915,0,U,69765,999,172,.31337028E-3,.11077E-3,0
KUIPER-00569,2026-151D,2026-07-13T07:12:45.524160,15.37448289,.00056654,51.8757,189.5360,125.3820,234.7697,0,U,69766,999,172,.33259831E-3,.12036E-3,0
KUIPER-00589,2026-151E,2026-07-13T00:00:02.000160,15.37382693,.0005559,51.8751,190.9976,135.7716,356.6638,0,U,69767,999,231,.64684449E-3,.23767E-3,0
KUIPER-00598,2026-151F,2026-07-13T00:00:02.000160,15.35232872,.00097171,51.8640,191.1280,157.3864,268.8568,0,U,69768,999,222,.69470413E-3,.23852E-3,0
KUIPER-00604,2026-151G,2026-07-13T00:00:02.000160,15.38203338,.00028851,51.8792,190.9278,101.6289,62.6212,0,U,69769,999,263,.64469572E-3,.24328E-3,0
KUIPER-00609,2026-151H,2026-07-13T07:00:49.361472,15.38610404,.00009054,51.8799,189.4791,28.9449,331.1588,0,U,69770,999,172,.31838744E-3,.11956E-3,0
KUIPER-00611,2026-151J,2026-07-13T07:02:57.929856,15.38425503,.00016729,51.8789,189.4855,80.8177,279.2999,0,U,69771,999,172,.38267055E-3,.14366E-3,0
KUIPER-00612,2026-151K,2026-07-13T07:08:12.652224,15.37923791,.00037692,51.8788,189.5122,117.6565,242.4805,0,U,69772,999,172,.48276549E-3,.17938E-3,0
KUIPER-00614,2026-151L,2026-07-13T07:06:01.990368,15.38129715,.0004364,51.8770,189.5007,140.0329,220.0980,0,U,69773,999,172,.24415169E-3,.8927E-4,0
KUIPER-00615,2026-151M,2026-07-13T07:15:34.500960,15.37207881,.00059448,51.8761,189.5512,137.1388,223.0063,0,U,69774,999,172,.33638574E-3,.12082E-3,0
