STARLINK-38047          
1 69745U 26150G   26194.00002315 -.00004163  00000+0 -21006-4 0  9996
2 69745  97.2839  32.2486 0001408  89.2048 328.0747 15.80813522  2941
STARLINK-38046          
1 69746U 26150H   26194.00002315  .00018987  00000+0  99716-4 0  9997
2 69746  97.2844  32.2534 0001310  94.9142 333.2902 15.80801512  2949
STARLINK-38067          
1 69747U 26150J   26194.25003472 -.00084260  00000+0 -56968-3 0  9990
2 69747  97.2836  32.5003 0001274  82.7251 283.8675 15.75187793  2983
STARLINK-37988          
1 69748U 26150K   26194.25003472 -.00089658  00000+0 -60660-3 0  9991
2 69748  97.2835  32.5045 0001262  86.1181 290.4764 15.75188612  2980
STARLINK-37987          
1 69749U 26150L   26194.25003472 -.00153879  00000+0 -10472-2 0  9994
2 69749  97.2842  32.5160 0001465  92.0759 308.4860 15.75238686  2983
STARLINK-38037          
1 69750U 26150M   26194.00002315 -.00022430  00000+0 -11661-3 0  9994
2 69750  97.2844  32.2652 0001277  96.8309 357.3718 15.80825556  2949
STARLINK-38049          
1 69751U 26150N   26194.00002315  .00011338  00000+0  59875-4 0  9998
2 69751  97.2844  32.2676 0001497 100.8768 359.1154 15.80809197  2942
STARLINK-38029          
1 69752U 26150P   26194.00002315  .00035302  00000+0  18451-3 0  9990
2 69752  97.2841  32.2808 0001253  95.2386  37.4594 15.80790718  2942
STARLINK-37965          
1 69753U 26150Q   26194.25003472 -.00093233  00000+0 -63068-3 0  9996
2 69753  97.2845  32.5387 0001205  95.4924   1.0775 15.75203048  2980
STARLINK-38048          
1 69754U 26150R   26194.00002315 -.00038469  00000+0 -20086-3 0  9998
2 69754  97.2841  32.2820 0001150  99.0180  35.7834 15.80828554  2946
STARLINK-38006          
1 69755U 26150S   26194.00002315 -.00191686  00000+0 -10190-2 0  9994
2 69755  97.2839  32.2885 0001137  85.0625  65.3368 15.80882837  2944
STARLINK-38036          
1 69756U 26150T   26194.03554913  .00192126  00000+0  98198-3 0  9997
2 69756  97.2845  32.3305 0001322  67.0527 293.0880 15.80812767  2985
STARLINK-38058          
1 69757U 26150U   26194.00002315 -.00030566  00000+0 -15929-3 0  9991
2 69757  97.2844  32.2941 0001162  93.5513  65.9787 15.80829920  2948
STARLINK-38066          
1 69758U 26150V   26194.03514598  .00209784  00000+0  10697-2 0  9990
2 69758  97.2844  32.3308 0001510  68.8606 291.2823 15.80818751  2981
STARLINK-38035          
1 69759U 26150W   26194.03502200  .00183073  00000+0  93688-3 0  9992
2 69759  97.2839  32.3311 0001264  61.9085 298.2311 15.80809042  2983
STARLINK-38056          
1 69760U 26150X   26194.03156095  .00114054  00000+0  58703-3 0  9993
2 69760  97.2831  32.3357 0001340 136.1540 223.9835 15.80868163  2988
STARLINK-38069          
1 69761U 26150Y   26194.25003472 -.00132425  00000+0 -69965-3 0  9994
2 69761  97.2843  32.5768 0001721  82.5022  99.7418 15.80860478  2989
STARLINK-38019          
1 69762U 26150Z   26194.25003472 -.00267448  00000+0 -18387-2 0  9990
2 69762  97.2848  32.5644 0000682  72.4518  80.0526 15.75319114  2984
KUIPER-00258            
1 69763U 26151A   26194.00002315  .00024510  00000+0  70929-3 0  9990
2 69763  51.8674 191.1397 0011823 161.5150 259.9943 15.35398399  2041
KUIPER-00526            
1 69764U 26151B   26194.30183753  .00011972  00000+0  33248-3 0  9991
2 69764  51.8757 189.5453 0005737 134.2692 225.8767 15.37296467  1728
KUIPER-00558            
1 69765U 26151C   26194.30525031  .00011077  00000+0  31337-3 0  9994
2 69765  51.8732 189.5670 0008451 144.3637 215.7915 15.36788802  1721
KUIPER-00569            
1 69766U 26151D   26194.30052690  .00012036  00000+0  33260-3 0  9994
2 69766  51.8757 189.5360 0005665 125.3820 234.7697 15.37448289  1723
KUIPER-00589            
1 69767U 26151E   26194.00002315  .00023767  00000+0  64684-3 0  9998
2 69767  51.8751 190.9976 0005559 135.7716 356.6638 15.37382693  2319
KUIPER-00598            
1 69768U 26151F   26194.00002315  .00023852  00000+0  69470-3 0  9992
2 69768  51.8640 191.1280 0009717 157.3864 268.8568 15.35232872  2229
KUIPER-00604            
1 69769U 26151G   26194.00002315  .00024328  00000+0  64470-3 0  9997
2 69769  51.8792 190.9278 0002885 101.6289  62.6212 15.38203338  2633
KUIPER-00609            
1 69770U 26151H   26194.29223798  .00011956  00000+0  31839-3 0  9996
2 69770  51.8799 189.4791 0000905  28.9449 331.1588 15.38610404  1720
KUIPER-00611            
1 69771U 26151J   26194.29372604  .00014366  00000+0  38267-3 0  9998
2 69771  51.8789 189.4855 0001672  80.8177 279.2999 15.38425503  1720
KUIPER-00612            
1 69772U 26151K   26194.29736866  .00017938  00000+0  48277-3 0  9993
2 69772  51.8788 189.5122 0003769 117.6565 242.4805 15.37923791  1726
KUIPER-00614            
1 69773U 26151L   26194.29585637  .00008927  00000+0  24415-3 0  9998
2 69773  51.8770 189.5007 0004364 140.0329 220.0980 15.38129715  1721
KUIPER-00615            
1 69774U 26151M   26194.30248265  .00012082  00000+0  33639-3 0  9999
2 69774  51.8761 189.5512 0005944 137.1388 223.0063 15.37207881  1725
